NAVSTAR 77 (USA 289)    
1 43873U 18109A   24041.44469830  .00000013  00000+0  00000+0 0  9995
2 43873  55.2469 126.0767 0028854 193.7183 161.4824  2.00573580 37866
